EUTELSAT 7A             
1 28187U 04008A   25295.09387065  .00000114  00000+0  00000+0 0  9993
2 28187   5.2232  74.8376 0000885 105.0640 105.4985  1.00269683 78961
EUTELSAT 174A           
1 28924U 05052A   25295.08468394  .00000021  00000+0  00000+0 0  9993
2 28924   3.6135  79.4642 0006278 134.4766  21.4218  1.00275623 49941
EUTELSAT HOTBIRD 13B    
1 29270U 06032A   25295.12801747  .00000165  00000+0  00000+0 0  9994
2 29270   1.0427  84.8110 0003958 118.7825 266.4086  1.00272610 44925
EUTELSAT HOTBIRD 13C    
1 33459U 08065A   25295.11900409 -.00000090  00000+0  00000+0 0  9998
2 33459   2.3348  81.9918 0005850 149.0740 190.1110  1.00272334 44952
EUTELSAT 36B            
1 36101U 09065A   25294.88378352  .00000119  00000+0  00000+0 0  9996
2 36101   0.0523 354.3486 0006030 221.1708 183.7472  1.00274959 58312
EUTELSAT KA-SAT 9A      
1 37258U 10069A   25295.11275255  .00000070  00000+0  00000+0 0  9997
2 37258   0.0594 319.5132 0002424 218.1908 262.7055  1.00268958 41629
EUTELSAT 7 WEST A       
1 37816U 11051A   25295.12004410 -.00000051  00000+0  00000+0 0  9993
2 37816   0.0893  43.8618 0006311 161.7764 221.1028  1.00272381 51499
EUTELSAT 16A            
1 37836U 11057A   25295.11275255  .00000113  00000+0  00000+0 0  9995
2 37836   0.0673 354.7246 0005508 219.7845 232.9135  1.00273805  4948
